OBJECT_NAME,OBJECT_ID,EPOCH,MEAN_MOTION,ECCENTRICITY,INCLINATION,RA_OF_ASC_NODE,ARG_OF_PERICENTER,MEAN_ANOMALY,EPHEMERIS_TYPE,CLASSIFICATION_TYPE,NORAD_CAT_ID,ELEMENT_SET_NO,REV_AT_EPOCH,BSTAR,MEAN_MOTION_DOT,MEAN_MOTION_DDOT
LEMUR-2-STARLIGHT,2025-276DY,2026-06-18T04:06:39.105216,14.99049155,.0015142,97.5260,239.7772,125.4407,234.8232,0,U,66783,999,3034,.32865E-3,.3939E-4,0
LEMUR-2-TARTIFLETTE,2025-276DZ,2026-06-18T10:28:54.562368,14.99079284,.0014066,97.5263,240.0399,130.8813,229.3631,0,U,66784,999,3038,.31579E-3,.3785E-4,0
LEMUR-2-VUKASIN,2025-276EA,2026-06-18T10:18:13.221216,15.00378428,.0005926,97.5307,240.3323,121.5696,238.6107,0,U,66785,999,3033,.34813E-3,.4317E-4,0
LEMUR-2-HOTSPUR-TOM,2025-276EB,2026-06-18T10:18:20.342304,14.98972580,.0015427,97.5259,240.0139,123.9912,236.2780,0,U,66786,999,3031,.37251E-3,.4465E-4,0
LEMUR-2-MYRA,2025-276EC,2026-06-18T11:03:41.738400,15.00261387,.0016737,97.5213,240.3002,137.3434,222.9093,0,U,66787,999,3040,.50749E-3,.6317E-4,0
LEMUR-2 FIKRETDENGIZ,2026-004A,2026-06-18T13:06:28.896192,14.88333548,.0010232,97.8017,168.0831,129.2774,230.9352,0,U,67363,999,2348,.37539E-3,.3422E-4,0
TWILIGHT-1 OBJECT B,2026-004B,2026-06-18T10:28:48.726048,14.87706091,.0010039,97.8061,167.9900,120.9040,239.3165,0,U,67364,999,2347,.16646E-3,.1463E-4,0
LEMUR-2-MARIO-SOUSA,2026-004C,2026-06-17T23:48:14.531040,14.88518565,.0009717,97.7987,167.5337,131.4058,228.7995,0,U,67365,999,2341,.38361555E-3,.3515E-4,0
LEMUR-2-SONNENBLUME,2026-004E,2026-06-18T11:03:46.386720,14.88320729,.0009264,97.7983,167.9797,131.5673,228.6339,0,U,67367,999,2348,.24477E-3,.2211E-4,0
LEMUR-2-WOBLER,2026-004F,2026-06-18T10:54:08.762976,14.88523287,.0009675,97.8039,168.0966,122.1673,238.0484,0,U,67368,999,2348,.30075E-3,.2744E-4,0
LEMUR-2-GRAM-E-SUE,2026-004H,2026-06-18T07:27:07.740864,14.88474915,.000826,97.7971,167.8467,132.5729,227.6186,0,U,67370,999,2346,.17116E-3,.1535E-4,0
LEMUR-2-KATIE,2026-004AA,2026-06-17T23:03:35.412192,14.90052933,.00048599,97.8034,167.9644,91.4386,268.7388,0,U,67387,999,2342,.28486828E-3,.2696E-4,0
LEMUR-2-HCS-BAZUS,2026-004AB,2026-06-17T23:02:13.185312,14.90078149,.00044365,97.8022,167.9443,88.8187,271.3539,0,U,67388,999,2342,.45831617E-3,.4374E-4,0
